*******************************************************************************
Ephemeris / WWW_USER Mon Mar 10 06:59:10 2025 Pasadena, USA      / Horizons    
*******************************************************************************
Target body name: (2019 AU)                       {source: JPL#11}
Center body name: Earth (399)                     {source: DE441}
Center-site name: Mauna Kea
*******************************************************************************
Start time      : A.D. 2019-Jan-16 04:13:00.0000 UT      
Stop  time      : A.D. 2019-Jan-16 16:49:00.0000 UT      
Step-size       : 1 minutes
*******************************************************************************
Target pole/equ : undefined
Target radii    : undefined                                                    
Center geodetic : 204.5278, 19.8260847, 4.21024   {E-lon(deg),Lat(deg),Alt(km)}
Center cylindric: 204.5278, 6006.35451, 2151.0229 {E-lon(deg),Dxy(km),Dz(km)}
Center pole/equ : ITRF93                          {East-longitude positive}
Center radii    : 6378.137, 6378.137, 6356.752 km {Equator_a, b, pole_c}       
Target primary  : Sun
Vis. interferer : MOON (R_eq= 1737.400) km        {source: DE441}
Rel. light bend : Sun                             {source: DE441}
Rel. lght bnd GM: 1.3271E+11 km^3/s^2                                          
Small-body perts: Yes                             {source: SB441-N16}
Atmos refraction: NO (AIRLESS)
RA format       : HMS
Time format     : CAL 
Calendar mode   : Mixed Julian/Gregorian
RTS-only print  : NO       
EOP file        : eop.250307.p250603                                           
EOP coverage    : DATA-BASED 1962-JAN-20 TO 2025-MAR-07. PREDICTS-> 2025-JUN-02
Units conversion: 1 au= 149597870.700 km, c= 299792.458 km/s, 1 day= 86400.0 s 
Table cut-offs 1: Elevation (-90.0deg=NO ),Airmass (>38.000=NO), Daylight (YES)
Table cut-offs 2: Solar elongation (  0.0,180.0=NO ),Local Hour Angle( 0.0=NO )
Table cut-offs 3: RA/DEC angular rate (     0.0=NO )                           
*******************************************************************************
Initial IAU76/J2000 heliocentric ecliptic osculating elements (au, days, deg.):
  EPOCH=  2458490.5 ! 2019-Jan-07.00 (TDB)         Residual RMS= .17143        
   EC= .1028488096127525   QR= .9927870416208908   TP= 2458466.0562707144      
   OM= 109.6543146265929   W=  330.7265060973358   IN= 5.020660041219873       
  Equivalent ICRF heliocentric cartesian coordinates (au, au/d):
   X=-2.730606646751524E-01  Y= 8.866895536052930E-01  Z= 3.780071563225811E-01
  VX=-1.742089442644723E-02 VY=-4.449382429672076E-03 VZ=-2.237797348809624E-04
Asteroid physical parameters (km, seconds, rotational period in hours):        
   GM= n.a.                RAD= n.a.               ROTPER= n.a.                
   H= 26.7                 G= .150                 B-V= n.a.                   
                           ALBEDO= n.a.            STYP= n.a.                  
*******************************************************************************
 Date__(UT)__HR:MN     R.A._________(ICRF)_________DEC
******************************************************
$$SOE
 2019-Jan-16 10:22  m  07 06 39.876545 +41 11 18.45833
 2019-Jan-16 10:23  m  07 06 40.044514 +41 11 24.06352
 2019-Jan-16 10:24  m  07 06 40.212559 +41 11 29.66462
 2019-Jan-16 10:25  m  07 06 40.380682 +41 11 35.26163
 2019-Jan-16 10:26  m  07 06 40.548885 +41 11 40.85457
 2019-Jan-16 10:27  m  07 06 40.717171 +41 11 46.44342
 2019-Jan-16 10:28  m  07 06 40.885541 +41 11 52.02819
 2019-Jan-16 10:29  m  07 06 41.053997 +41 11 57.60889
 2019-Jan-16 10:30  m  07 06 41.222542 +41 12 03.18552
 2019-Jan-16 10:31  m  07 06 41.391177 +41 12 08.75807
 2019-Jan-16 10:32  m  07 06 41.559906 +41 12 14.32657
 2019-Jan-16 10:33  m  07 06 41.728729 +41 12 19.89100
 2019-Jan-16 10:34  m  07 06 41.897650 +41 12 25.45137
 2019-Jan-16 10:35  m  07 06 42.066670 +41 12 31.00768
 2019-Jan-16 10:36  m  07 06 42.235791 +41 12 36.55995
 2019-Jan-16 10:37  m  07 06 42.405016 +41 12 42.10816
 2019-Jan-16 10:38  m  07 06 42.574346 +41 12 47.65233
 2019-Jan-16 10:39  m  07 06 42.743784 +41 12 53.19246
 2019-Jan-16 10:40  m  07 06 42.913331 +41 12 58.72855
 2019-Jan-16 10:41  m  07 06 43.082991 +41 13 04.26060
 2019-Jan-16 10:42  m  07 06 43.252765 +41 13 09.78862
 2019-Jan-16 10:43  m  07 06 43.422655 +41 13 15.31262
 2019-Jan-16 10:44  m  07 06 43.592663 +41 13 20.83259
 2019-Jan-16 10:45  m  07 06 43.762791 +41 13 26.34855
 2019-Jan-16 10:46  m  07 06 43.933042 +41 13 31.86049
 2019-Jan-16 10:47  m  07 06 44.103417 +41 13 37.36842
 2019-Jan-16 10:48  m  07 06 44.273919 +41 13 42.87234
 2019-Jan-16 10:49  m  07 06 44.444549 +41 13 48.37227
 2019-Jan-16 10:50  m  07 06 44.615310 +41 13 53.86819
 2019-Jan-16 10:51  m  07 06 44.786205 +41 13 59.36012
 2019-Jan-16 10:52  m  07 06 44.957234 +41 14 04.84806
 2019-Jan-16 10:53  m  07 06 45.128400 +41 14 10.33202
 2019-Jan-16 10:54  m  07 06 45.299705 +41 14 15.81200
 2019-Jan-16 10:55  m  07 06 45.471151 +41 14 21.28801
 2019-Jan-16 10:56  m  07 06 45.642741 +41 14 26.76004
 2019-Jan-16 10:57  m  07 06 45.814475 +41 14 32.22811
 2019-Jan-16 10:58  m  07 06 45.986357 +41 14 37.69222
 2019-Jan-16 10:59  m  07 06 46.158389 +41 14 43.15237
 2019-Jan-16 11:00  m  07 06 46.330572 +41 14 48.60857
 2019-Jan-16 11:01  m  07 06 46.502909 +41 14 54.06083
 2019-Jan-16 11:02  m  07 06 46.675401 +41 14 59.50915
 2019-Jan-16 11:03  m  07 06 46.848050 +41 15 04.95353
 2019-Jan-16 11:04  m  07 06 47.020860 +41 15 10.39398
 2019-Jan-16 11:05  m  07 06 47.193831 +41 15 15.83051
 2019-Jan-16 11:06  m  07 06 47.366966 +41 15 21.26312
 2019-Jan-16 11:07  m  07 06 47.540266 +41 15 26.69182
 2019-Jan-16 11:08  m  07 06 47.713734 +41 15 32.11660
 2019-Jan-16 11:09  m  07 06 47.887373 +41 15 37.53749
 2019-Jan-16 11:10  m  07 06 48.061183 +41 15 42.95448
 2019-Jan-16 11:11  m  07 06 48.235167 +41 15 48.36758
 2019-Jan-16 11:12  m  07 06 48.409326 +41 15 53.77680
 2019-Jan-16 11:13  m  07 06 48.583664 +41 15 59.18213
 2019-Jan-16 11:14  m  07 06 48.758182 +41 16 04.58360
 2019-Jan-16 11:15  m  07 06 48.932881 +41 16 09.98119
 2019-Jan-16 11:16  m  07 06 49.107765 +41 16 15.37493
 2019-Jan-16 11:17  m  07 06 49.282834 +41 16 20.76481
 2019-Jan-16 11:18  m  07 06 49.458092 +41 16 26.15084
 2019-Jan-16 11:19  m  07 06 49.633539 +41 16 31.53303
 2019-Jan-16 11:20  m  07 06 49.809178 +41 16 36.91139
 2019-Jan-16 11:21  m  07 06 49.985011 +41 16 42.28591
 2019-Jan-16 11:22  m  07 06 50.161040 +41 16 47.65662
 2019-Jan-16 11:23  m  07 06 50.337267 +41 16 53.02350
 2019-Jan-16 11:24  m  07 06 50.513694 +41 16 58.38658
 2019-Jan-16 11:25  m  07 06 50.690322 +41 17 03.74585
 2019-Jan-16 11:26  m  07 06 50.867154 +41 17 09.10133
 2019-Jan-16 11:27  m  07 06 51.044192 +41 17 14.45302
 2019-Jan-16 11:28  m  07 06 51.221438 +41 17 19.80093
 2019-Jan-16 11:29  m  07 06 51.398893 +41 17 25.14506
 2019-Jan-16 11:30  m  07 06 51.576560 +41 17 30.48542
 2019-Jan-16 11:31  m  07 06 51.754440 +41 17 35.82202
 2019-Jan-16 11:32  m  07 06 51.932536 +41 17 41.15486
 2019-Jan-16 11:33  m  07 06 52.110849 +41 17 46.48396
 2019-Jan-16 11:34  m  07 06 52.289382 +41 17 51.80932
 2019-Jan-16 11:35  m  07 06 52.468135 +41 17 57.13094
 2019-Jan-16 11:36  m  07 06 52.647112 +41 18 02.44884
 2019-Jan-16 11:37  m  07 06 52.826314 +41 18 07.76303
 2019-Jan-16 11:38  m  07 06 53.005743 +41 18 13.07350
 2019-Jan-16 11:39  m  07 06 53.185401 +41 18 18.38027
 2019-Jan-16 11:40  m  07 06 53.365290 +41 18 23.68334
 2019-Jan-16 11:41  m  07 06 53.545412 +41 18 28.98273
 2019-Jan-16 11:42  m  07 06 53.725768 +41 18 34.27843
 2019-Jan-16 11:43  m  07 06 53.906360 +41 18 39.57047
 2019-Jan-16 11:44  m  07 06 54.087191 +41 18 44.85884
 2019-Jan-16 11:45  m  07 06 54.268263 +41 18 50.14355
 2019-Jan-16 11:46  m  07 06 54.449576 +41 18 55.42462
 2019-Jan-16 11:47  m  07 06 54.631134 +41 19 00.70204
 2019-Jan-16 11:48  m  07 06 54.812937 +41 19 05.97584
 2019-Jan-16 11:49  m  07 06 54.994988 +41 19 11.24601
 2019-Jan-16 11:50  m  07 06 55.177289 +41 19 16.51256
 2019-Jan-16 11:51  m  07 06 55.359841 +41 19 21.77551
 2019-Jan-16 11:52  m  07 06 55.542647 +41 19 27.03486
 2019-Jan-16 11:53  m  07 06 55.725708 +41 19 32.29062
 2019-Jan-16 11:54  m  07 06 55.909025 +41 19 37.54279
 2019-Jan-16 11:55  m  07 06 56.092602 +41 19 42.79140
 2019-Jan-16 11:56  m  07 06 56.276439 +41 19 48.03643
 2019-Jan-16 11:57  m  07 06 56.460539 +41 19 53.27792
 2019-Jan-16 11:58  m  07 06 56.644903 +41 19 58.51585
 2019-Jan-16 11:59  m  07 06 56.829533 +41 20 03.75025
 2019-Jan-16 12:00  m  07 06 57.014431 +41 20 08.98111
 2019-Jan-16 12:01  m  07 06 57.199599 +41 20 14.20846
 2019-Jan-16 12:02  m  07 06 57.385038 +41 20 19.43229
 2019-Jan-16 12:03  m  07 06 57.570751 +41 20 24.65262
 2019-Jan-16 12:04  m  07 06 57.756739 +41 20 29.86946
 2019-Jan-16 12:05  m  07 06 57.943003 +41 20 35.08281
 2019-Jan-16 12:06  m  07 06 58.129546 +41 20 40.29268
 2019-Jan-16 12:07  m  07 06 58.316370 +41 20 45.49909
 2019-Jan-16 12:08  m  07 06 58.503476 +41 20 50.70204
 2019-Jan-16 12:09  m  07 06 58.690866 +41 20 55.90155
 2019-Jan-16 12:10  m  07 06 58.878541 +41 21 01.09761
 2019-Jan-16 12:11  m  07 06 59.066504 +41 21 06.29025
 2019-Jan-16 12:12  m  07 06 59.254756 +41 21 11.47947
 2019-Jan-16 12:13  m  07 06 59.443299 +41 21 16.66528
 2019-Jan-16 12:14  m  07 06 59.632135 +41 21 21.84769
 2019-Jan-16 12:15  m  07 06 59.821265 +41 21 27.02670
 2019-Jan-16 12:16  m  07 07 00.010691 +41 21 32.20234
 2019-Jan-16 12:17  m  07 07 00.200415 +41 21 37.37461
 2019-Jan-16 12:18  m  07 07 00.390438 +41 21 42.54351
 2019-Jan-16 12:19  m  07 07 00.580763 +41 21 47.70907
 2019-Jan-16 12:20  m  07 07 00.771390 +41 21 52.87128
 2019-Jan-16 12:21  m  07 07 00.962322 +41 21 58.03017
 2019-Jan-16 12:22  m  07 07 01.153561 +41 22 03.18573
 2019-Jan-16 12:23  m  07 07 01.345107 +41 22 08.33798
 2019-Jan-16 12:24  m  07 07 01.536963 +41 22 13.48693
